{"type": "FeatureCollection", "features": [ {"type": "Feature", "properties": {"norad_id": 39620, "name": "COSMOS 2492 (754)", "group": "gnss", "lat": 63.2072348163616, "lon": 24.887744501220382, "alt_km": 19144.204253904863, "timestamp": "2025-12-24T09:46:31.246345+00:00", "meta": {"OBJECT_NAME": "COSMOS 2492 (754)", "OBJECT_ID": "2014-012A", "EPOCH": "2025-12-21T22:59:34.433088", "MEAN_MOTION": 2.13103396, "ECCENTRICITY": 0.00142426, "INCLINATION": 65.4026, "RA_OF_ASC_NODE": 319.9579, "ARG_OF_PERICENTER": 313.3292, "MEAN_ANOMALY": 46.5466, "EPHEMERIS_TYPE": 0, "CLASSIFICATION_TYPE": "U", "NORAD_CAT_ID": 39620, "ELEMENT_SET_NO": 999, "REV_AT_EPOCH": 9146, "BSTAR": 0, "MEAN_MOTION_DOT": -4.2e-07, "MEAN_MOTION_DDOT": 0}, "tle": {"line1": "1 39620U 14012A   25355.95803742 -.00000042  00000+0  00000+0 0  9991", "line2": "2 39620  65.4026 319.9579 0014242 313.3292  46.5466  2.13103396 91463"}}, "geometry": {"type": "Point", "coordinates": [24.887744501220382, 63.2072348163616]}}, {"type": "Feature", "properties": {"norad_id": 39635, "name": "IRNSS-1B", "group": "gnss", "lat": 22.389218337746993, "lon": -69.14735174419678, "alt_km": 35827.29768866926, "timestamp": "2025-12-24T09:46:31.246356+00:00", "meta": {"OBJECT_NAME": "IRNSS-1B", "OBJECT_ID": "2014-017A", "EPOCH": "2025-12-23T18:31:43.277952", "MEAN_MOTION": 1.00271787, "ECCENTRICITY": 0.00185524, "INCLINATION": 29.2369, "RA_OF_ASC_NODE": 243.4044, "ARG_OF_PERICENTER": 175.251, "MEAN_ANOMALY": 6.964, "EPHEMERIS_TYPE": 0, "CLASSIFICATION_TYPE": "U", "NORAD_CAT_ID": 39635, "ELEMENT_SET_NO": 999, "REV_AT_EPOCH": 4303, "BSTAR": 0, "MEAN_MOTION_DOT": 1.43e-06, "MEAN_MOTION_DDOT": 0}, "tle": {"line1": "1 39635U 14017A   25357.77202868  .00000143  00000+0  00000+0 0  9997", "line2": "2 39635  29.2369 243.4044 0018552 175.2510   6.9640  1.00271787 43030"}}, "geometry": {"type": "Point", "coordinates": [-69.14735174419678, 22.389218337746993]}}, {"type": "Feature", "properties": {"norad_id": 39727, "name": "LUCH 5V (SDCM/PRN 141)", "group": "gnss", "lat": -4.679519970824444, "lon": -25.444449125799437, "alt_km": 35775.577085015764, "timestamp": "2025-12-24T09:46:31.246368+00:00", "meta": {"OBJECT_NAME": "LUCH 5V (SDCM/PRN 141)", "OBJECT_ID": "2014-023A", "EPOCH": "2025-12-23T18:43:04.689696", "MEAN_MOTION": 1.00274826, "ECCENTRICITY": 0.00037272, "INCLINATION": 4.696, "RA_OF_ASC_NODE": 71.4456, "ARG_OF_PERICENTER": 214.0842, "MEAN_ANOMALY": 182.5327, "EPHEMERIS_TYPE": 0, "CLASSIFICATION_TYPE": "U", "NORAD_CAT_ID": 39727, "ELEMENT_SET_NO": 999, "REV_AT_EPOCH": 4260, "BSTAR": 0, "MEAN_MOTION_DOT": -2.5e-06, "MEAN_MOTION_DDOT": 0}, "tle": {"line1": "1 39727U 14023A   25357.77991539 -.00000250  00000+0  00000+0 0  9996", "line2": "2 39727   4.6960  71.4456 0003727 214.0842 182.5327  1.00274826 42602"}}, "geometry": {"type": "Point", "coordinates": [-25.444449125799437, -4.679519970824444]}}, {"type": "Feature", "properties": {"norad_id": 39741, "name": "GPS BIIF-6  (PRN 06)", "group": "gnss", "lat": -31.17695567385415, "lon": -45.23328222249167, "alt_km": 20081.62826274336, "timestamp": "2025-12-24T09:46:31.246380+00:00", "meta": {"OBJECT_NAME": "GPS BIIF-6  (PRN 06)", "OBJECT_ID": "2014-026A", "EPOCH": "2025-12-23T23:04:28.187040", "MEAN_MOTION": 2.00560551, "ECCENTRICITY": 0.0039456, "INCLINATION": 56.5792, "RA_OF_ASC_NODE": 338.3401, "ARG_OF_PERICENTER": 319.3147, "MEAN_ANOMALY": 40.3961, "EPHEMERIS_TYPE": 0, "CLASSIFICATION_TYPE": "U", "NORAD_CAT_ID": 39741, "ELEMENT_SET_NO": 999, "REV_AT_EPOCH": 8502, "BSTAR": 0, "MEAN_MOTION_DOT": -6e-07, "MEAN_MOTION_DDOT": 0}, "tle": {"line1": "1 39741U 14026A   25357.96143735 -.00000060  00000+0  00000+0 0  9992", "line2": "2 39741  56.5792 338.3401 0039456 319.3147  40.3961  2.00560551 85029"}}, "geometry": {"type": "Point", "coordinates": [-45.23328222249167, -31.17695567385415]}}, {"type": "Feature", "properties": {"norad_id": 40001, "name": "COSMOS 2500 (755)", "group": "gnss", "lat": -46.498863693976155, "lon": -69.31375411006663, "alt_km": 19134.28843232859, "timestamp": "2025-12-24T09:46:31.246391+00:00", "meta": {"OBJECT_NAME": "COSMOS 2500 (755)", "OBJECT_ID": "2014-032A", "EPOCH": "2025-12-21T04:35:55.026240", "MEAN_MOTION": 2.13106227, "ECCENTRICITY": 0.00077299, "INCLINATION": 65.3386, "RA_OF_ASC_NODE": 319.7453, "ARG_OF_PERICENTER": 219.3736, "MEAN_ANOMALY": 140.5635, "EPHEMERIS_TYPE": 0, "CLASSIFICATION_TYPE": "U", "NORAD_CAT_ID": 40001, "ELEMENT_SET_NO": 999, "REV_AT_EPOCH": 8966, "BSTAR": 0, "MEAN_MOTION_DOT": -4.7e-07, "MEAN_MOTION_DDOT": 0}, "tle": {"line1": "1 40001U 14032A   25355.19160910 -.00000047  00000+0  00000+0 0  9992", "line2": "2 40001  65.3386 319.7453 0007729 219.3736 140.5635  2.13106227 89663"}}, "geometry": {"type": "Point", "coordinates": [-69.31375411006663, -46.498863693976155]}}, {"type": "Feature", "properties": {"norad_id": 40105, "name": "GPS BIIF-7  (PRN 09)", "group": "gnss", "lat": -53.98961673973345, "lon": -11.964282897139183, "alt_km": 20252.60423251848, "timestamp": "2025-12-24T09:46:31.246402+00:00", "meta": {"OBJECT_NAME": "GPS BIIF-7  (PRN 09)", "OBJECT_ID": "2014-045A", "EPOCH": "2025-12-23T13:11:32.096256", "MEAN_MOTION": 2.00573211, "ECCENTRICITY": 0.00324114, "INCLINATION": 55.2352, "RA_OF_ASC_NODE": 95.4677, "ARG_OF_PERICENTER": 120.1575, "MEAN_ANOMALY": 240.1743, "EPHEMERIS_TYPE": 0, "CLASSIFICATION_TYPE": "U", "NORAD_CAT_ID": 40105, "ELEMENT_SET_NO": 999, "REV_AT_EPOCH": 8255, "BSTAR": 0, "MEAN_MOTION_DOT": 8e-08, "MEAN_MOTION_DDOT": 0}, "tle": {"line1": "1 40105U 14045A   25357.54967704  .00000008  00000+0  00000+0 0  9994", "line2": "2 40105  55.2352  95.4677 0032411 120.1575 240.1743  2.00573211 82556"}}, "geometry": {"type": "Point", "coordinates": [-11.964282897139183, -53.98961673973345]}}, {"type": "Feature", "properties": {"norad_id": 40128, "name": "GSAT0201 (GALILEO 5)", "group": "gnss", "lat": 49.04893366609213, "lon": 13.506530873623822, "alt_km": 20129.23837923202, "timestamp": "2025-12-24T09:46:31.246415+00:00", "meta": {"OBJECT_NAME": "GSAT0201 (GALILEO 5)", "OBJECT_ID": "2014-050A", "EPOCH": "2025-12-23T04:02:42.572256", "MEAN_MOTION": 1.85519666, "ECCENTRICITY": 0.16488905, "INCLINATION": 49.0647, "RA_OF_ASC_NODE": 280.6385, "ARG_OF_PERICENTER": 172.6684, "MEAN_ANOMALY": 190.1357, "EPHEMERIS_TYPE": 0, "CLASSIFICATION_TYPE": "U", "NORAD_CAT_ID": 40128, "ELEMENT_SET_NO": 999, "REV_AT_EPOCH": 7505, "BSTAR": 0, "MEAN_MOTION_DOT": -3.6e-07, "MEAN_MOTION_DDOT": 0}, "tle": {"line1": "1 40128U 14050A   25357.16854829 -.00000036  00000+0  00000+0 0  9998", "line2": "2 40128  49.0647 280.6385 1648890 172.6684 190.1357  1.85519666 75059"}}, "geometry": {"type": "Point", "coordinates": [13.506530873623822, 49.04893366609213]}}, {"type": "Feature", "properties": {"norad_id": 40129, "name": "GSAT0202 (GALILEO 6)", "group": "gnss", "lat": -33.918314825130935, "lon": -115.95535521493885, "alt_km": 24715.31716440283, "timestamp": "2025-12-24T09:46:31.246429+00:00", "meta": {"OBJECT_NAME": "GSAT0202 (GALILEO 6)", "OBJECT_ID": "2014-050B", "EPOCH": "2025-12-18T13:46:22.484640", "MEAN_MOTION": 1.85520466, "ECCENTRICITY": 0.16491259, "INCLINATION": 49.0858, "RA_OF_ASC_NODE": 279.9095, "ARG_OF_PERICENTER": 173.2442, "MEAN_ANOMALY": 189.3393, "EPHEMERIS_TYPE": 0, "CLASSIFICATION_TYPE": "U", "NORAD_CAT_ID": 40129, "ELEMENT_SET_NO": 999, "REV_AT_EPOCH": 7713, "BSTAR": 0, "MEAN_MOTION_DOT": -5.9e-07, "MEAN_MOTION_DDOT": 0}, "tle": {"line1": "1 40129U 14050B   25352.57387135 -.00000059  00000+0  00000+0 0  9995", "line2": "2 40129  49.0858 279.9095 1649125 173.2442 189.3393  1.85520466 77135"}}, "geometry": {"type": "Point", "coordinates": [-115.95535521493885, -33.918314825130935]}}, {"type": "Feature", "properties": {"norad_id": 40269, "name": "IRNSS-1C", "group": "gnss", "lat": -4.686777108735643, "lon": -37.489102244978476, "alt_km": 35836.19994670047, "timestamp": "2025-12-24T09:46:31.246441+00:00", "meta": {"OBJECT_NAME": "IRNSS-1C", "OBJECT_ID": "2014-061A", "EPOCH": "2025-12-23T19:52:06.021408", "MEAN_MOTION": 1.00273456, "ECCENTRICITY": 0.00180885, "INCLINATION": 6.0701, "RA_OF_ASC_NODE": 92.3991, "ARG_OF_PERICENTER": 0.9978, "MEAN_ANOMALY": 20.2495, "EPHEMERIS_TYPE": 0, "CLASSIFICATION_TYPE": "U", "NORAD_CAT_ID": 40269, "ELEMENT_SET_NO": 999, "REV_AT_EPOCH": 4093, "BSTAR": 0, "MEAN_MOTION_DOT": -1.44e-06, "MEAN_MOTION_DDOT": 0}, "tle": {"line1": "1 40269U 14061A   25357.82784747 -.00000144  00000+0  00000+0 0  9990", "line2": "2 40269   6.0701  92.3991 0018088   0.9978  20.2495  1.00273456 40934"}}, "geometry": {"type": "Point", "coordinates": [-37.489102244978476, -4.686777108735643]}}, {"type": "Feature", "properties": {"norad_id": 40294, "name": "GPS BIIF-8  (PRN 03)", "group": "gnss", "lat": -10.822724266380028, "lon": 30.541744434024785, "alt_km": 20160.036367590306, "timestamp": "2025-12-24T09:46:31.246453+00:00", "meta": {"OBJECT_NAME": "GPS BIIF-8  (PRN 03)", "OBJECT_ID": "2014-068A", "EPOCH": "2025-12-23T10:16:22.808064", "MEAN_MOTION": 2.00565491, "ECCENTRICITY": 0.00608386, "INCLINATION": 56.8656, "RA_OF_ASC_NODE": 37.7327, "ARG_OF_PERICENTER": 68.9718, "MEAN_ANOMALY": 291.747, "EPHEMERIS_TYPE": 0, "CLASSIFICATION_TYPE": "U", "NORAD_CAT_ID": 40294, "ELEMENT_SET_NO": 999, "REV_AT_EPOCH": 8168, "BSTAR": 0, "MEAN_MOTION_DOT": -4.8e-07, "MEAN_MOTION_DDOT": 0}, "tle": {"line1": "1 40294U 14068A   25357.42804176 -.00000048  00000+0  00000+0 0  9993", "line2": "2 40294  56.8656  37.7327 0060838  68.9718 291.7470  2.00565491 81685"}}, "geometry": {"type": "Point", "coordinates": [30.541744434024785, -10.822724266380028]}}]}